{"type": "FeatureCollection", "features": [ {"type": "Feature", "properties": {"norad_id": 39634, "name": "SENTINEL-1A", "group": "resource", "lat": -79.95096863749731, "lon": 127.81590800321652, "alt_km": 704.0079474805298, "timestamp": "2025-12-22T23:36:20.356719+00:00", "meta": {"OBJECT_NAME": "SENTINEL-1A", "OBJECT_ID": "2014-016A", "EPOCH": "2025-12-22T14:10:12.815904", "MEAN_MOTION": 14.59200468, "ECCENTRICITY": 0.00012863, "INCLINATION": 98.1795, "RA_OF_ASC_NODE": 1.686, "ARG_OF_PERICENTER": 83.7774, "MEAN_ANOMALY": 276.3572, "EPHEMERIS_TYPE": 0, "CLASSIFICATION_TYPE": "U", "NORAD_CAT_ID": 39634, "ELEMENT_SET_NO": 999, "REV_AT_EPOCH": 62426, "BSTAR": -2.3433751e-05, "MEAN_MOTION_DOT": -1.56e-06, "MEAN_MOTION_DDOT": 0}, "tle": {"line1": "1 39634U 14016A   25356.59042611 -.00000156  00000+0 -23434-4 0  9999", "line2": "2 39634  98.1795   1.6860 0001286  83.7774 276.3572 14.59200468624261"}}, "geometry": {"type": "Point", "coordinates": [127.81590800321652, -79.95096863749731]}}, {"type": "Feature", "properties": {"norad_id": 39731, "name": "KAZEOSAT 1", "group": "resource", "lat": -31.97868435743632, "lon": 73.91788395459692, "alt_km": 758.2566738584646, "timestamp": "2025-12-22T23:36:20.356729+00:00", "meta": {"OBJECT_NAME": "KAZEOSAT 1", "OBJECT_ID": "2014-024A", "EPOCH": "2025-12-22T13:45:50.266080", "MEAN_MOTION": 14.4206837, "ECCENTRICITY": 0.00012221, "INCLINATION": 98.3427, "RA_OF_ASC_NODE": 68.2604, "ARG_OF_PERICENTER": 96.4971, "MEAN_ANOMALY": 263.6357, "EPHEMERIS_TYPE": 0, "CLASSIFICATION_TYPE": "U", "NORAD_CAT_ID": 39731, "ELEMENT_SET_NO": 999, "REV_AT_EPOCH": 61310, "BSTAR": 0.00014469168, "MEAN_MOTION_DOT": 4.32e-06, "MEAN_MOTION_DDOT": 0}, "tle": {"line1": "1 39731U 14024A   25356.57349845  .00000432  00000+0  14469-3 0  9995", "line2": "2 39731  98.3427  68.2604 0001222  96.4971 263.6357 14.42068370613105"}}, "geometry": {"type": "Point", "coordinates": [73.91788395459692, -31.97868435743632]}}, {"type": "Feature", "properties": {"norad_id": 39766, "name": "ALOS-2", "group": "resource", "lat": 30.59956037493626, "lon": -83.59158702155071, "alt_km": 628.7843436642561, "timestamp": "2025-12-22T23:36:20.356739+00:00", "meta": {"OBJECT_NAME": "ALOS-2", "OBJECT_ID": "2014-029A", "EPOCH": "2025-12-22T13:11:43.903680", "MEAN_MOTION": 14.79475388, "ECCENTRICITY": 0.00014101, "INCLINATION": 97.923, "RA_OF_ASC_NODE": 91.2567, "ARG_OF_PERICENTER": 97.1247, "MEAN_ANOMALY": 263.0125, "EPHEMERIS_TYPE": 0, "CLASSIFICATION_TYPE": "U", "NORAD_CAT_ID": 39766, "ELEMENT_SET_NO": 999, "REV_AT_EPOCH": 62546, "BSTAR": 0.00019585024, "MEAN_MOTION_DOT": 1.412e-05, "MEAN_MOTION_DDOT": 0}, "tle": {"line1": "1 39766U 14029A   25356.54981370  .00001412  00000+0  19585-3 0  9993", "line2": "2 39766  97.9230  91.2567 0001410  97.1247 263.0125 14.79475388625467"}}, "geometry": {"type": "Point", "coordinates": [-83.59158702155071, 30.59956037493626]}}, {"type": "Feature", "properties": {"norad_id": 40010, "name": "KAZEOSAT 2", "group": "resource", "lat": -82.38508013118724, "lon": -61.963523725797835, "alt_km": 621.1854565914209, "timestamp": "2025-12-22T23:36:20.356749+00:00", "meta": {"OBJECT_NAME": "KAZEOSAT 2", "OBJECT_ID": "2014-033A", "EPOCH": "2025-12-22T14:18:48.576384", "MEAN_MOTION": 14.85182577, "ECCENTRICITY": 0.00085193, "INCLINATION": 97.5494, "RA_OF_ASC_NODE": 200.4016, "ARG_OF_PERICENTER": 172.4864, "MEAN_ANOMALY": 187.6481, "EPHEMERIS_TYPE": 0, "CLASSIFICATION_TYPE": "U", "NORAD_CAT_ID": 40010, "ELEMENT_SET_NO": 999, "REV_AT_EPOCH": 62274, "BSTAR": 9.2701321e-05, "MEAN_MOTION_DOT": 7.44e-06, "MEAN_MOTION_DDOT": 0}, "tle": {"line1": "1 40010U 14033A   25356.59639556  .00000744  00000+0  92701-4 0  9992", "line2": "2 40010  97.5494 200.4016 0008519 172.4864 187.6481 14.85182577622747"}}, "geometry": {"type": "Point", "coordinates": [-61.963523725797835, -82.38508013118724]}}, {"type": "Feature", "properties": {"norad_id": 40011, "name": "HODOYOSHI-4", "group": "resource", "lat": 79.0080134507308, "lon": 142.36317796061914, "alt_km": 596.6062707440251, "timestamp": "2025-12-22T23:36:20.356759+00:00", "meta": {"OBJECT_NAME": "HODOYOSHI-4", "OBJECT_ID": "2014-033B", "EPOCH": "2025-12-22T13:33:03.466944", "MEAN_MOTION": 14.87516151, "ECCENTRICITY": 0.00239597, "INCLINATION": 97.5407, "RA_OF_ASC_NODE": 184.9638, "ARG_OF_PERICENTER": 167.5134, "MEAN_ANOMALY": 192.6682, "EPHEMERIS_TYPE": 0, "CLASSIFICATION_TYPE": "U", "NORAD_CAT_ID": 40011, "ELEMENT_SET_NO": 999, "REV_AT_EPOCH": 62254, "BSTAR": 0.00021412606, "MEAN_MOTION_DOT": 1.9e-05, "MEAN_MOTION_DDOT": 0}, "tle": {"line1": "1 40011U 14033B   25356.56462346  .00001900  00000+0  21413-3 0  9997", "line2": "2 40011  97.5407 184.9638 0023959 167.5134 192.6682 14.87516151622546"}}, "geometry": {"type": "Point", "coordinates": [142.36317796061914, 79.0080134507308]}}, {"type": "Feature", "properties": {"norad_id": 40013, "name": "DEIMOS-2", "group": "resource", "lat": 78.88445492466782, "lon": -170.41152678444098, "alt_km": 580.2267546001876, "timestamp": "2025-12-22T23:36:20.356769+00:00", "meta": {"OBJECT_NAME": "DEIMOS-2", "OBJECT_ID": "2014-033D", "EPOCH": "2025-12-22T15:11:52.564992", "MEAN_MOTION": 14.93013541, "ECCENTRICITY": 0.00014937, "INCLINATION": 97.6066, "RA_OF_ASC_NODE": 232.1071, "ARG_OF_PERICENTER": 102.1828, "MEAN_ANOMALY": 257.956, "EPHEMERIS_TYPE": 0, "CLASSIFICATION_TYPE": "U", "NORAD_CAT_ID": 40013, "ELEMENT_SET_NO": 999, "REV_AT_EPOCH": 61137, "BSTAR": 0.00015223626, "MEAN_MOTION_DOT": 1.528e-05, "MEAN_MOTION_DDOT": 0}, "tle": {"line1": "1 40013U 14033D   25356.63324728  .00001528  00000+0  15224-3 0  9997", "line2": "2 40013  97.6066 232.1071 0001493 102.1828 257.9560 14.93013541611372"}}, "geometry": {"type": "Point", "coordinates": [-170.41152678444098, 78.88445492466782]}}, {"type": "Feature", "properties": {"norad_id": 40015, "name": "HODOYOSHI-3", "group": "resource", "lat": -82.35741527468272, "lon": -103.78256086363409, "alt_km": 608.8584349111707, "timestamp": "2025-12-22T23:36:20.356779+00:00", "meta": {"OBJECT_NAME": "HODOYOSHI-3", "OBJECT_ID": "2014-033F", "EPOCH": "2025-12-22T11:04:28.563744", "MEAN_MOTION": 14.84838208, "ECCENTRICITY": 0.00323542, "INCLINATION": 97.6205, "RA_OF_ASC_NODE": 161.874, "ARG_OF_PERICENTER": 214.8788, "MEAN_ANOMALY": 145.0307, "EPHEMERIS_TYPE": 0, "CLASSIFICATION_TYPE": "U", "NORAD_CAT_ID": 40015, "ELEMENT_SET_NO": 999, "REV_AT_EPOCH": 62139, "BSTAR": 0.00018203561, "MEAN_MOTION_DOT": 1.508e-05, "MEAN_MOTION_DDOT": 0}, "tle": {"line1": "1 40015U 14033F   25356.46144171  .00001508  00000+0  18204-3 0  9991", "line2": "2 40015  97.6205 161.8740 0032354 214.8788 145.0307 14.84838208621390"}}, "geometry": {"type": "Point", "coordinates": [-103.78256086363409, -82.35741527468272]}}, {"type": "Feature", "properties": {"norad_id": 40053, "name": "SPOT 7", "group": "resource", "lat": -5.507162837195216, "lon": -121.9627478139129, "alt_km": 694.7067722999445, "timestamp": "2025-12-22T23:36:20.356789+00:00", "meta": {"OBJECT_NAME": "SPOT 7", "OBJECT_ID": "2014-034A", "EPOCH": "2025-12-22T14:32:22.733952", "MEAN_MOTION": 14.60745486, "ECCENTRICITY": 0.00015683, "INCLINATION": 98.0896, "RA_OF_ASC_NODE": 58.454, "ARG_OF_PERICENTER": 82.9773, "MEAN_ANOMALY": 277.1606, "EPHEMERIS_TYPE": 0, "CLASSIFICATION_TYPE": "U", "NORAD_CAT_ID": 40053, "ELEMENT_SET_NO": 999, "REV_AT_EPOCH": 61135, "BSTAR": 0.00012272278, "MEAN_MOTION_DOT": 5.53e-06, "MEAN_MOTION_DDOT": 0}, "tle": {"line1": "1 40053U 14034A   25356.60581868  .00000553  00000+0  12272-3 0  9996", "line2": "2 40053  98.0896  58.4540 0001568  82.9773 277.1606 14.60745486611356"}}, "geometry": {"type": "Point", "coordinates": [-121.9627478139129, -5.507162837195216]}}, {"type": "Feature", "properties": {"norad_id": 40072, "name": "SKYSAT-B", "group": "resource", "lat": 20.000835263968337, "lon": -61.83797766554785, "alt_km": 607.1262698933324, "timestamp": "2025-12-22T23:36:20.356798+00:00", "meta": {"OBJECT_NAME": "SKYSAT-B", "OBJECT_ID": "2014-037D", "EPOCH": "2025-12-21T18:27:09.238752", "MEAN_MOTION": 14.87356718, "ECCENTRICITY": 0.00067041, "INCLINATION": 98.3624, "RA_OF_ASC_NODE": 299.9522, "ARG_OF_PERICENTER": 124.7394, "MEAN_ANOMALY": 235.4453, "EPHEMERIS_TYPE": 0, "CLASSIFICATION_TYPE": "U", "NORAD_CAT_ID": 40072, "ELEMENT_SET_NO": 999, "REV_AT_EPOCH": 61958, "BSTAR": 0.00015196295, "MEAN_MOTION_DOT": 1.312e-05, "MEAN_MOTION_DDOT": 0}, "tle": {"line1": "1 40072U 14037D   25355.76885693  .00001312  00000+0  15196-3 0  9991", "line2": "2 40072  98.3624 299.9522 0006704 124.7394 235.4453 14.87356718619587"}}, "geometry": {"type": "Point", "coordinates": [-61.83797766554785, 20.000835263968337]}}, {"type": "Feature", "properties": {"norad_id": 40115, "name": "WORLDVIEW-3 (WV-3)", "group": "resource", "lat": -7.924009771472489, "lon": -111.9660090647611, "alt_km": 617.8859044706633, "timestamp": "2025-12-22T23:36:20.356808+00:00", "meta": {"OBJECT_NAME": "WORLDVIEW-3 (WV-3)", "OBJECT_ID": "2014-048A", "EPOCH": "2025-12-22T11:26:22.638624", "MEAN_MOTION": 14.84668916, "ECCENTRICITY": 0.00018974, "INCLINATION": 97.8767, "RA_OF_ASC_NODE": 68.6373, "ARG_OF_PERICENTER": 133.2376, "MEAN_ANOMALY": 226.8997, "EPHEMERIS_TYPE": 0, "CLASSIFICATION_TYPE": "U", "NORAD_CAT_ID": 40115, "ELEMENT_SET_NO": 999, "REV_AT_EPOCH": 61568, "BSTAR": 0.00011708436, "MEAN_MOTION_DOT": 9.37e-06, "MEAN_MOTION_DDOT": 0}, "tle": {"line1": "1 40115U 14048A   25356.47665091  .00000937  00000+0  11708-3 0  9995", "line2": "2 40115  97.8767  68.6373 0001897 133.2376 226.8997 14.84668916615682"}}, "geometry": {"type": "Point", "coordinates": [-111.9660090647611, -7.924009771472489]}}]}